APRIZESAT 2             
1 28366U 04025A   26064.47017778  .00000488  00000+0  16458-3 0  9991
2 28366  98.0903 236.3741 0105214 202.5967 157.0571 14.37984716136732
SAUDICOMSAT 1           
1 28369U 04025D   26064.54996332  .00000736  00000+0  17984-3 0  9995
2 28369  98.5809  71.8729 0031812 343.1302  16.8834 14.55383366149057
SAUDICOMSAT 2           
1 28370U 04025E   26064.61296721  .00000468  00000+0  13142-3 0  9994
2 28370  98.6686  73.9151 0054992 212.3405 147.4413 14.49905558145090
APRIZESAT 1             
1 28372U 04025G   26064.56629005  .00000433  00000+0  11860-3 0  9992
2 28372  98.6345  72.4547 0045799 109.8216 250.7924 14.51711199146873
NANOSAT-1               
1 28493U 04049B   26064.32579169  .00002030  00000+0  27626-3 0  9993
2 28493  98.2090 198.5659 0002829 264.3746  95.7142 14.79904708140082
SAUDICOMSAT 7           
1 31119U 07012C   26064.71219891  .00001000  00000+0  18794-3 0  9993
2 31119  98.3674  36.7979 0056219 159.5010 200.8467 14.65963430  7273
SAUDICOMSAT 6           
1 31121U 07012E   26064.71231590  .00001203  00000+0  23978-3 0  9991
2 31121  98.3983  30.3836 0070724 289.4197  69.9370 14.62423535  5063
SAUDICOMSAT 5           
1 31124U 07012H   26064.76123919  .00001315  00000+0  23448-3 0  9990
2 31124  98.3386  37.6149 0048851  90.9629 269.7172 14.67993290  8429
SAUDICOMSAT 3           
1 31125U 07012J   26064.76362409  .00001786  00000+0  29957-3 0  9993
2 31125  98.3044  38.1777 0039815  20.8868 339.3953 14.70512723  9627
SAUDICOMSAT 4           
1 31127U 07012L   26064.70953560  .00000968  00000+0  18800-3 0  9999
2 31127  98.3876  35.2463 0062633 220.8672 138.7825 14.64371639  6146
APRIZESAT 4             
1 35684U 09041D   26064.67590170  .00001213  00000+0  15160-3 0  9995
2 35684  98.1493 137.9157 0042227 298.0894  61.6053 14.83699945896015
APRIZESAT 3             
1 35686U 09041F   26064.36335046  .00003210  00000+0  28156-3 0  9990
2 35686  98.1891 212.7293 0063177  50.8863 309.7950 14.95881492900852
S-NET D                 
1 43186U 18014G   26064.71313348  .00007688  00000+0  40826-3 0  9995
2 43186  97.5442 330.1884 0009265  28.1479 332.0252 15.15565062443087
S-NET B                 
1 43187U 18014H   26064.72261809  .00008093  00000+0  42979-3 0  9993
2 43187  97.5449 330.1810 0009777  23.4397 336.7279 15.15538821443082
S-NET A                 
1 43188U 18014J   26064.71249778  .00007762  00000+0  41202-3 0  9994
2 43188  97.5457 330.3611 0009730  23.8650 336.3031 15.15571936443084
S-NET C                 
1 43189U 18014K   26064.72594451  .00008021  00000+0  42603-3 0  9992
2 43189  97.5475 330.4330 0010852  15.6806 344.4761 15.15531096441635
SALSAT                  
1 46495U 20068K   26064.54776748  .00011945  00000+0  43846-3 0  9997
2 46495  97.8852  61.4374 0008579 314.2144  45.8389 15.28084035299522
