[{"OBJECT_NAME":"APRIZESAT 2","OBJECT_ID":"2004-025A","EPOCH":"2026-03-05T11:17:03.360192","MEAN_MOTION":14.37984716,"ECCENTRICITY":0.0105214,"INCLINATION":98.0903,"RA_OF_ASC_NODE":236.3741,"ARG_OF_PERICENTER":202.5967,"MEAN_ANOMALY":157.0571,"EPHEMERIS_TYPE":0,"CLASSIFICATION_TYPE":"U","NORAD_CAT_ID":28366,"ELEMENT_SET_NO":999,"REV_AT_EPOCH":13673,"BSTAR":0.00016458,"MEAN_MOTION_DOT":4.88e-6,"MEAN_MOTION_DDOT":0},{"OBJECT_NAME":"SAUDICOMSAT 1","OBJECT_ID":"2004-025D","EPOCH":"2026-03-05T13:11:56.830848","MEAN_MOTION":14.55383366,"ECCENTRICITY":0.0031812,"INCLINATION":98.5809,"RA_OF_ASC_NODE":71.8729,"ARG_OF_PERICENTER":343.1302,"MEAN_ANOMALY":16.8834,"EPHEMERIS_TYPE":0,"CLASSIFICATION_TYPE":"U","NORAD_CAT_ID":28369,"ELEMENT_SET_NO":999,"REV_AT_EPOCH":14905,"BSTAR":0.00017984,"MEAN_MOTION_DOT":7.36e-6,"MEAN_MOTION_DDOT":0},{"OBJECT_NAME":"SAUDICOMSAT 2","OBJECT_ID":"2004-025E","EPOCH":"2026-03-05T14:42:40.366944","MEAN_MOTION":14.49905558,"ECCENTRICITY":0.0054992,"INCLINATION":98.6686,"RA_OF_ASC_NODE":73.9151,"ARG_OF_PERICENTER":212.3405,"MEAN_ANOMALY":147.4413,"EPHEMERIS_TYPE":0,"CLASSIFICATION_TYPE":"U","NORAD_CAT_ID":28370,"ELEMENT_SET_NO":999,"REV_AT_EPOCH":14509,"BSTAR":0.00013142,"MEAN_MOTION_DOT":4.68e-6,"MEAN_MOTION_DDOT":0},{"OBJECT_NAME":"APRIZESAT 1","OBJECT_ID":"2004-025G","EPOCH":"2026-03-05T13:35:27.460320","MEAN_MOTION":14.51711199,"ECCENTRICITY":0.0045799,"INCLINATION":98.6345,"RA_OF_ASC_NODE":72.4547,"ARG_OF_PERICENTER":109.8216,"MEAN_ANOMALY":250.7924,"EPHEMERIS_TYPE":0,"CLASSIFICATION_TYPE":"U","NORAD_CAT_ID":28372,"ELEMENT_SET_NO":999,"REV_AT_EPOCH":14687,"BSTAR":0.0001186,"MEAN_MOTION_DOT":4.33e-6,"MEAN_MOTION_DDOT":0},{"OBJECT_NAME":"NANOSAT-1","OBJECT_ID":"2004-049B","EPOCH":"2026-03-05T07:49:08.402016","MEAN_MOTION":14.79904708,"ECCENTRICITY":0.0002829,"INCLINATION":98.209,"RA_OF_ASC_NODE":198.5659,"ARG_OF_PERICENTER":264.3746,"MEAN_ANOMALY":95.7142,"EPHEMERIS_TYPE":0,"CLASSIFICATION_TYPE":"U","NORAD_CAT_ID":28493,"ELEMENT_SET_NO":999,"REV_AT_EPOCH":14008,"BSTAR":0.00027626,"MEAN_MOTION_DOT":2.03e-5,"MEAN_MOTION_DDOT":0},{"OBJECT_NAME":"SAUDICOMSAT 7","OBJECT_ID":"2007-012C","EPOCH":"2026-03-05T17:05:33.985824","MEAN_MOTION":14.6596343,"ECCENTRICITY":0.0056219,"INCLINATION":98.3674,"RA_OF_ASC_NODE":36.7979,"ARG_OF_PERICENTER":159.501,"MEAN_ANOMALY":200.8467,"EPHEMERIS_TYPE":0,"CLASSIFICATION_TYPE":"U","NORAD_CAT_ID":31119,"ELEMENT_SET_NO":999,"REV_AT_EPOCH":727,"BSTAR":0.00018794,"MEAN_MOTION_DOT":1.0e-5,"MEAN_MOTION_DDOT":0},{"OBJECT_NAME":"SAUDICOMSAT 6","OBJECT_ID":"2007-012E","EPOCH":"2026-03-05T17:05:44.093760","MEAN_MOTION":14.62423535,"ECCENTRICITY":0.0070724,"INCLINATION":98.3983,"RA_OF_ASC_NODE":30.3836,"ARG_OF_PERICENTER":289.4197,"MEAN_ANOMALY":69.937,"EPHEMERIS_TYPE":0,"CLASSIFICATION_TYPE":"U","NORAD_CAT_ID":31121,"ELEMENT_SET_NO":999,"REV_AT_EPOCH":506,"BSTAR":0.00023978,"MEAN_MOTION_DOT":1.203e-5,"MEAN_MOTION_DDOT":0},{"OBJECT_NAME":"SAUDICOMSAT 5","OBJECT_ID":"2007-012H","EPOCH":"2026-03-05T18:16:11.066016","MEAN_MOTION":14.6799329,"ECCENTRICITY":0.0048851,"INCLINATION":98.3386,"RA_OF_ASC_NODE":37.6149,"ARG_OF_PERICENTER":90.9629,"MEAN_ANOMALY":269.7172,"EPHEMERIS_TYPE":0,"CLASSIFICATION_TYPE":"U","NORAD_CAT_ID":31124,"ELEMENT_SET_NO":999,"REV_AT_EPOCH":842,"BSTAR":0.00023448,"MEAN_MOTION_DOT":1.315e-5,"MEAN_MOTION_DDOT":0},{"OBJECT_NAME":"SAUDICOMSAT 3","OBJECT_ID":"2007-012J","EPOCH":"2026-03-05T18:19:37.121376","MEAN_MOTION":14.70512723,"ECCENTRICITY":0.0039815,"INCLINATION":98.3044,"RA_OF_ASC_NODE":38.1777,"ARG_OF_PERICENTER":20.8868,"MEAN_ANOMALY":339.3953,"EPHEMERIS_TYPE":0,"CLASSIFICATION_TYPE":"U","NORAD_CAT_ID":31125,"ELEMENT_SET_NO":999,"REV_AT_EPOCH":962,"BSTAR":0.00029957,"MEAN_MOTION_DOT":1.786e-5,"MEAN_MOTION_DDOT":0},{"OBJECT_NAME":"SAUDICOMSAT 4","OBJECT_ID":"2007-012L","EPOCH":"2026-03-05T17:01:43.875840","MEAN_MOTION":14.64371639,"ECCENTRICITY":0.0062633,"INCLINATION":98.3876,"RA_OF_ASC_NODE":35.2463,"ARG_OF_PERICENTER":220.8672,"MEAN_ANOMALY":138.7825,"EPHEMERIS_TYPE":0,"CLASSIFICATION_TYPE":"U","NORAD_CAT_ID":31127,"ELEMENT_SET_NO":999,"REV_AT_EPOCH":614,"BSTAR":0.000188,"MEAN_MOTION_DOT":9.68e-6,"MEAN_MOTION_DDOT":0},{"OBJECT_NAME":"APRIZESAT 4","OBJECT_ID":"2009-041D","EPOCH":"2026-03-05T16:13:17.906880","MEAN_MOTION":14.83699945,"ECCENTRICITY":0.0042227,"INCLINATION":98.1493,"RA_OF_ASC_NODE":137.9157,"ARG_OF_PERICENTER":298.0894,"MEAN_ANOMALY":61.6053,"EPHEMERIS_TYPE":0,"CLASSIFICATION_TYPE":"U","NORAD_CAT_ID":35684,"ELEMENT_SET_NO":999,"REV_AT_EPOCH":89601,"BSTAR":0.0001516,"MEAN_MOTION_DOT":1.213e-5,"MEAN_MOTION_DDOT":0},{"OBJECT_NAME":"APRIZESAT 3","OBJECT_ID":"2009-041F","EPOCH":"2026-03-05T08:43:13.479744","MEAN_MOTION":14.95881492,"ECCENTRICITY":0.0063177,"INCLINATION":98.1891,"RA_OF_ASC_NODE":212.7293,"ARG_OF_PERICENTER":50.8863,"MEAN_ANOMALY":309.795,"EPHEMERIS_TYPE":0,"CLASSIFICATION_TYPE":"U","NORAD_CAT_ID":35686,"ELEMENT_SET_NO":999,"REV_AT_EPOCH":90085,"BSTAR":0.00028156,"MEAN_MOTION_DOT":3.21e-5,"MEAN_MOTION_DDOT":0},{"OBJECT_NAME":"S-NET D","OBJECT_ID":"2018-014G","EPOCH":"2026-03-05T17:06:54.732672","MEAN_MOTION":15.15565062,"ECCENTRICITY":0.0009265,"INCLINATION":97.5442,"RA_OF_ASC_NODE":330.1884,"ARG_OF_PERICENTER":28.1479,"MEAN_ANOMALY":332.0252,"EPHEMERIS_TYPE":0,"CLASSIFICATION_TYPE":"U","NORAD_CAT_ID":43186,"ELEMENT_SET_NO":999,"REV_AT_EPOCH":44308,"BSTAR":0.00040826,"MEAN_MOTION_DOT":7.688e-5,"MEAN_MOTION_DDOT":0},{"OBJECT_NAME":"S-NET B","OBJECT_ID":"2018-014H","EPOCH":"2026-03-05T17:20:34.202976","MEAN_MOTION":15.15538821,"ECCENTRICITY":0.0009777,"INCLINATION":97.5449,"RA_OF_ASC_NODE":330.181,"ARG_OF_PERICENTER":23.4397,"MEAN_ANOMALY":336.7279,"EPHEMERIS_TYPE":0,"CLASSIFICATION_TYPE":"U","NORAD_CAT_ID":43187,"ELEMENT_SET_NO":999,"REV_AT_EPOCH":44308,"BSTAR":0.00042979,"MEAN_MOTION_DOT":8.093e-5,"MEAN_MOTION_DDOT":0},{"OBJECT_NAME":"S-NET A","OBJECT_ID":"2018-014J","EPOCH":"2026-03-05T17:05:59.808192","MEAN_MOTION":15.15571936,"ECCENTRICITY":0.000973,"INCLINATION":97.5457,"RA_OF_ASC_NODE":330.3611,"ARG_OF_PERICENTER":23.865,"MEAN_ANOMALY":336.3031,"EPHEMERIS_TYPE":0,"CLASSIFICATION_TYPE":"U","NORAD_CAT_ID":43188,"ELEMENT_SET_NO":999,"REV_AT_EPOCH":44308,"BSTAR":0.00041202,"MEAN_MOTION_DOT":7.762e-5,"MEAN_MOTION_DDOT":0},{"OBJECT_NAME":"S-NET C","OBJECT_ID":"2018-014K","EPOCH":"2026-03-05T17:25:21.605664","MEAN_MOTION":15.15531096,"ECCENTRICITY":0.0010852,"INCLINATION":97.5475,"RA_OF_ASC_NODE":330.433,"ARG_OF_PERICENTER":15.6806,"MEAN_ANOMALY":344.4761,"EPHEMERIS_TYPE":0,"CLASSIFICATION_TYPE":"U","NORAD_CAT_ID":43189,"ELEMENT_SET_NO":999,"REV_AT_EPOCH":44163,"BSTAR":0.00042603,"MEAN_MOTION_DOT":8.021e-5,"MEAN_MOTION_DDOT":0},{"OBJECT_NAME":"SALSAT","OBJECT_ID":"2020-068K","EPOCH":"2026-03-05T13:08:47.110272","MEAN_MOTION":15.28084035,"ECCENTRICITY":0.0008579,"INCLINATION":97.8852,"RA_OF_ASC_NODE":61.4374,"ARG_OF_PERICENTER":314.2144,"MEAN_ANOMALY":45.8389,"EPHEMERIS_TYPE":0,"CLASSIFICATION_TYPE":"U","NORAD_CAT_ID":46495,"ELEMENT_SET_NO":999,"REV_AT_EPOCH":29952,"BSTAR":0.00043846,"MEAN_MOTION_DOT":0.00011945,"MEAN_MOTION_DDOT":0}]
